[{"OBJECT_NAME":"SHIYAN-5 (SY-5)","OBJECT_ID":"2013-068A","EPOCH":"2026-03-09T23:05:17.847168","MEAN_MOTION":14.43628019,"ECCENTRICITY":0.00128666,"INCLINATION":98.0874,"RA_OF_ASC_NODE":305.1507,"ARG_OF_PERICENTER":245.0461,"MEAN_ANOMALY":114.9394,"EPHEMERIS_TYPE":0,"CLASSIFICATION_TYPE":"U","NORAD_CAT_ID":39455,"ELEMENT_SET_NO":999,"REV_AT_EPOCH":64731,"BSTAR":0.00021006914,"MEAN_MOTION_DOT":6.72e-6,"MEAN_MOTION_DDOT":0},{"OBJECT_NAME":"COSMOS 1275 DEB","OBJECT_ID":"1981-053KT","EPOCH":"2026-03-09T05:20:04.355232","MEAN_MOTION":14.48147872,"ECCENTRICITY":0.00143485,"INCLINATION":82.8427,"RA_OF_ASC_NODE":160.4222,"ARG_OF_PERICENTER":136.0893,"MEAN_ANOMALY":255.8623,"EPHEMERIS_TYPE":0,"CLASSIFICATION_TYPE":"U","NORAD_CAT_ID":17624,"ELEMENT_SET_NO":999,"REV_AT_EPOCH":10951,"BSTAR":0.0019537247,"MEAN_MOTION_DOT":7.305e-5,"MEAN_MOTION_DDOT":0}]
